#dP2020  3 30  0  0  0.00000000      97 __u+U IGS14 FIT  IAC
## 2099  86400.00000000   900.00000000 58938 0.0000000000000
+  122   C01C02C03C04C05C06C07C08C09C10C11C12C13C14C16C19C20
+        C21C22C23C24C25C26C27C28C29C30C32C33C34C35C36C37C38
+        C39C40C43C44C45C46E01E02E03E04E05E07E08E09E11E12E13
+        E14E15E18E21E24E25E26E27E30E31E33E36G01G02G03G04G05
+        G06G07G08G09G10G11G12G13G14G15G16G17G18G19G20G21G22
+        G23G24G25G26G27G28G29G30G31G32J01J02J03J07R01R02R03
+        R04R05R07R08R09R11R12R13R14R15R16R17R18R19R20R21R22
+        R23R24R26  0  0  0  0  0  0  0  0  0  0  0  0  0  0
++         0  0  0  0  0  0  0  0  0  0  0  0  0  0  0  0  0
++         0  0  0  0  0  0  0  0  0  0  0  0  0  0  0  0  0
++         0  0  0  0  0  0  0  0  0  0  0  0  0  0  0  0  0
++         0  0  0  0  0  0  0  0  0  0  0  0  0  0  0  0  0
++         0  0  0  0  0  0  0  0  0  0  0  0  0  0  0  0  0
++         0  0  0  0  0  0  0  0  0  0  0  0  0  0  0  0  0
++         0  0  0  0  0  0  0  0  0  0  0  0  0  0  0  0  0
++         0  0  0  0  0  0  0  0  0  0  0  0  0  0  0  0  0
%c M  cc GPS ccc cccc cccc cccc cccc ccccc ccccc ccccc ccccc
%c cc cc ccc ccc cccc cccc cccc cccc ccccc ccccc ccccc ccccc
%f  1.2500000  1.025000000  0.00000000000  0.000000000000000
%f  0.0000000  0.000000000  0.00000000000  0.000000000000000
%i    0    0    0    0      0      0      0      0         0
%i    0    0    0    0      0      0      0      0         0
/* INFORMATION & ANALYSIS CENTER (IAC)            FINAL DATA
/* S/V CLOCKS ARE ALIGNED TO GNSS TIME                      
/* G:C1WC2W R:C1PC2P E:C1XC5X C:C2IC6I J:C1CC2S             
/* PCV:IGS14_2097 OL/AL:FES2004  NONE     YN ORB:CoN CLK:CoN
*  2020 03 31  0  0  0.00000000
PC01 -32308.609504  27101.327286   -792.120729 999999.999999
PC02   4435.975723  41918.023787   -183.234541    448.118470
PC03 -14756.971205  39511.741979   -826.288393    228.347263
PC04 -39637.970249  14388.477625   -689.633802   -170.527886
PC05      0.000000      0.000000      0.000000 999999.999999
PC06 -20945.300254  22737.432506  28863.194341    241.805195
PC07 -18642.482629  37764.884316   5318.409847    900.832917
PC08  -6161.061086  25038.368352 -33174.082472   -178.819395
PC09  -4451.568032  24619.321964  34161.390891    438.747736
PC10  -8310.037341  40779.530170  -7862.732147   -807.985260
PC11 -26506.317179    447.042054  -8726.492619   -273.052585
PC12 -23884.269636 -10940.616578   9475.472650    340.932200
PC13   5689.494526  33665.001594 -24477.340908    353.880312
PC14 -21680.728687   9958.284391 -14487.561377    249.640637
PC16 -16869.630933  23320.493822  30806.407630   -701.197626
PC19  20708.179720 -17515.337385   6562.417269    367.650103
PC20  19442.245430  -1516.651113  19971.939376   -931.417512
PC21  -6542.054829 -15922.414990 -21936.526808   -230.596805
PC22   9963.261520 -23619.430914 -10980.776229   -852.372818
PC23   -314.672548  25222.495468  11934.191603   -933.793408
PC24 -17761.743339  -9791.677823  19166.337743   -878.197893
PC25 -12351.916905  11722.222721  22098.869228   -566.404503
PC26 -13186.346656 -23952.169759   5659.691653    626.135884
PC27  16544.849245  15117.191089 -16656.719541    304.439268
PC28  -3933.123156  15382.088801 -22944.770487    295.417261
PC29  21739.620254  -7513.228011  15802.919925    208.223786
PC30  27425.022299   5158.382348   -906.546267    294.736977
PC32   6689.053708  15896.232463  21960.006592   -915.546558
PC33 -20633.458482  17619.417843  -6555.221723   -888.625092
PC34 -27441.720697  -4960.979256    475.427479 999999.999999
PC35   3634.523761 -15528.799434  22901.449306   -914.559987
PC36  12721.056597 -11213.229828 -22143.293981   -821.215616
PC37  12291.803923  24526.568791  -5055.635218   -850.126134
PC38  -4420.153305  28921.452643 -30317.942848     69.658037
PC39 -15110.936334  24422.914366  30852.032756 999999.999999
PC40 -14452.228154  39143.134049  -6764.837822     30.675266
PC43 -21946.036647   7317.495652 -15588.555521 999999.999999
PC44 -16800.217797 -14712.803574  16708.792972 999999.999999
PC45    194.101070 -25193.087289 -12020.922948     98.065284
PC46  17695.129563   9271.812205 -19468.251373    910.855230
PE01  16204.444652  -9470.320174 -22895.329862   -825.804612
PE02 -16187.171905   9544.246054  22860.071274    123.063507
PE03 -27635.566934  10060.761458  -3413.601279   -282.600120
PE04  17383.587068 -19193.348257 -14330.583896   -495.723234
PE05 -21792.538007  -5089.669791 -19369.896573   -392.756655
PE07   3259.994296  17163.980081  23904.384447   -361.489819
PE08 -17116.787884  19280.714568  14557.638152   6199.256646
PE09  -3427.636156 -16960.396606 -24006.670441   6108.620453
PE11 -13099.038672 -21515.701148  15525.887097   2009.176511
PE12   7130.319774 -14817.708946  24618.075187   5878.159945
PE13  13020.933889  21423.227329 -15737.131572    399.669731
PE14 -24855.321021  -3759.491920   7313.333063   -959.824426
PE15  -6787.042041  14919.319595 -24636.449064    872.156082
PE18  20630.864280  13557.429452 -18312.653503  -1058.146148
PE21  14027.298122  12827.267203 -22696.956456   -590.838724
PE24  -3363.191055 -28000.257767   9013.712982   5532.720275
PE25 -13979.781436 -12961.211516  22644.361586   -508.228507
PE26  25196.033241  15297.205975   2745.481779   3358.254306
PE27   3609.384020  27903.664858  -9183.752727    251.127020
PE30  -9169.878722  26349.043592   9855.428695   4024.930976
PE31   8881.779830 -26532.718499  -9662.400764   -472.142713
PE33  22639.661430    355.385593  19084.059787   -468.947284
PE36 -25179.618032 -15365.037359  -2379.712445    579.222230
PG01  20209.687498  11959.839379  12517.406824   -343.253792
PG02 -12175.226465 -22219.079670   8719.023671   -431.136036
PG03  15576.882655    893.402312  21424.676226   -132.101251
PG04  25901.057118    984.117208   5876.893393    -69.559449
PG05  -4785.259470 -20660.974358 -15999.827127    -10.014635
PG06  -2591.014947 -20763.898362  16387.586687   -242.557038
PG07  14926.513133  -5239.697971 -21101.777086   -247.689090
PG08  20170.801099   7492.396796 -15714.890961    -28.971182
PG09  25031.180472  -7627.285077  -4665.303736   -187.752269
PG10 -11476.047711  23582.534888  -3218.096973   -294.665465
PG11  22997.390320  12779.344744  -2631.797825   -318.961720
PG12 -14323.371684  -3949.424544  21771.287411    134.754639
PG13 -12631.205694 -13083.924878 -19507.162782     -1.704535
PG14  -2833.444134  15443.703109  21742.471495    -22.813053
PG15 -21376.157878  -6085.051203 -15122.968166   -241.324809
PG16   2992.359856  20004.865071 -17182.265970   -141.030298
PG17  13576.119797 -13748.311575  18625.275191    240.894375
PG18 -17514.453485    -23.236668 -19986.094545    138.542922
PG19   5565.492236 -14484.439870  21259.715763   -178.621126
PG20 -14800.592184  16978.588900 -13988.484223    527.849791
PG21 -13426.000357   7359.649710 -20893.323673    -20.649649
PG22  13158.722554  10373.442042  20849.450309   -785.282116
PG23  26361.663803   -986.589942   5059.497578   -125.849099
PG24 -21319.651786 -12301.252700  10239.713804    -11.045745
PG25 -16891.717223   8507.003121  18296.505962     -6.147835
PG26  -3009.425925  25148.640761  -7638.674880    178.031922
PG27   9861.158851  12908.367600 -21211.904914   -253.398222
PG28  12367.595680 -23548.881439   -816.607649    729.033019
PG29 -26108.716277   4082.362645  -2798.937344    -69.380713
PG30   6562.038562 -15882.011541 -20169.619831   -187.471056
PG31   3756.580431  21717.147802  14443.508269    -32.866967
PG32 -12097.199510  15006.704019  18285.590766    248.659289
PJ01 -26912.765744  32487.943651   4136.320008   -333.735500
PJ02 -26288.739444  25309.789817  25903.449028     -2.129131
PJ03 -32855.518081  16425.346808 -16072.455585     -1.554411
PJ07 -25351.601091  33683.968536     34.801967      0.034859
PR01  20787.030786 -11957.548472   8676.191378     59.299655
PR02  13368.271047 -18041.018045 -12112.555958    419.399899
PR03  -2013.151078 -12062.831578 -22347.376505     12.460605
PR04 -15978.284386    947.410679 -19830.683636     43.838258
PR05 -20940.323967  13233.664123  -6028.875896     47.734483
PR07   2639.056399  11675.151716  22559.020510    -34.931397
PR08  16051.256831   -788.295895  19869.633809    -51.335006
PR09    122.632706  24358.324121   7695.296570    124.684014
PR11  11630.226608   9907.981936 -20431.048815    -18.526613
PR12   9277.710432  -8514.176862 -22166.482510    118.487067
PR13   1479.970877 -22907.265466 -11147.396114    -36.727756
PR14  -6906.977947 -23672.334187   6512.157334     49.658308
PR15 -11373.650674 -10815.891715  20123.642548    106.245014
PR16  -9161.514042   9079.396432  21956.603243     -2.468333
PR17 -13666.033007 -13537.627086  16779.775757    313.410374
PR18 -23441.915783  -9882.213799   1359.737592     30.342392
PR19 -20877.759031  -1729.824147 -14546.769396    -86.337770
PR20  -4682.927254   9284.833690 -23280.952362   -407.934676
PR21  14409.851250  13483.586036 -16148.312693   -114.823834
PR22  23949.090734   8865.022448   1434.492400    -19.973081
PR23  16687.987423  -2586.198832  19116.487728    296.016769
PR24   1995.809128 -10388.635264  23187.688595    -49.743458
PR26  -9059.049526   7344.185988 -22675.008287   -400.986314
EOF
